0 FENGYUN 1C DEB
1 31474U 99025BVN 13282.71173733  .00001033  00000-0  75281-3 0  5531
2 31474 099.0640 241.4900 0079353 242.6121 241.5204 13.96992440328967
0 FENGYUN 1C DEB
1 31474U 99025BVN 13286.72206140  .00001157  00000-0  83874-3 0  5551
2 31474 099.0641 245.4443 0079308 231.3123 250.4794 13.97001159329526
0 FENGYUN 1C DEB
1 31474U 99025BVN 13288.72723618  .00001393  00000-0  10035-2 0  5568
2 31474 099.0642 247.4212 0079271 225.6323 255.1117 13.97007720329802
0 FENGYUN 1C DEB
1 31474U 99025BVN 13290.73281315  .00001396  00000-0  10058-2 0  5574
2 31474 099.0645 249.3986 0079227 219.9559 261.8039 13.97013490330082
0 FENGYUN 1C DEB
1 31474U 99025BVN 13292.73787277  .00001618  00000-0  11603-2 0  5589
2 31474 099.0646 251.3754 0079161 214.2547 265.9639 13.97017435330366
0 FENGYUN 1C DEB
1 31474U 99025BVN 13294.74306981  .00001857  00000-0  13273-2 0  5592
2 31474 099.0647 253.3526 0079097 208.5637 270.8390 13.97023480330647
